0 MIDAS 7 / ERS 10
1 00622U 63030A   13280.03910948  .00000002  00000-0  00000+0 0  2770
2 00622 088.4036 110.2458 0034205 024.4911 133.6687 08.57929963 62669
0 MIDAS 7 / ERS 10
1 00622U 63030A   13284.42779583  .00000002  00000-0  00000+0 0  2786
2 00622 088.4039 110.0012 0034164 020.1216 008.3157 08.57930040 63042
0 MIDAS 7 / ERS 10
1 00622U 63030A   13288.50743444  .00000002  00000-0  00000+0 0  2797
2 00622 088.4038 109.7738 0034141 016.0273 008.4919 08.57929957 63393
0 MIDAS 7 / ERS 10
1 00622U 63030A   13292.85493397  .00000002  00000-0  00000+0 0  2801
2 00622 088.4041 109.5315 0034110 011.6870 115.9467 08.57929930 63760
